OBJECT_NAME,OBJECT_ID,EPOCH,MEAN_MOTION,ECCENTRICITY,INCLINATION,RA_OF_ASC_NODE,ARG_OF_PERICENTER,MEAN_ANOMALY,EPHEMERIS_TYPE,CLASSIFICATION_TYPE,NORAD_CAT_ID,ELEMENT_SET_NO,REV_AT_EPOCH,BSTAR,MEAN_MOTION_DOT,MEAN_MOTION_DDOT
IRIDIUM 156,2018-061H,2026-06-04T16:46:02.565120,14.34217252,.0002175,86.3964,61.9511,78.8278,281.3162,0,U,43576,999,41158,.19572E-4,.75E-6,0
IRIDIUM 164,2018-061J,2026-06-04T17:59:06.285120,14.34216843,.0002081,86.3967,61.9699,89.7067,270.4367,0,U,43577,999,41163,.7615E-4,.233E-5,0
IRIDIUM 159,2018-061K,2026-06-04T17:13:26.510016,14.34217350,.000219,86.3963,61.9200,85.6924,274.4522,0,U,43578,999,41159,-.48428E-5,.6E-7,0
IRIDIUM 180,2019-002A,2026-06-05T01:35:02.971968,14.34217680,.0002238,86.3973,358.6658,89.2219,270.9233,0,U,43922,999,38725,.91688E-6,.22E-6,0
IRIDIUM 176,2019-002B,2026-06-04T02:37:13.623744,14.72250537,.0002067,86.6094,359.0116,84.8735,275.2718,0,U,43923,999,39732,.14303584E-3,.926E-5,0
IRIDIUM 168,2019-002C,2026-06-04T23:45:26.971200,14.34217277,.0002059,86.3973,358.7747,89.5375,270.6056,0,U,43924,999,38722,-.11821E-4,-.13E-6,0
IRIDIUM 173,2019-002D,2026-06-04T23:27:10.719360,14.34219377,.0002248,86.3973,358.6694,87.3899,272.7554,0,U,43925,999,38720,.69444E-4,.214E-5,0
IRIDIUM 169,2019-002E,2026-06-05T00:15:00.877248,14.38609227,.0002286,86.4235,30.2843,70.4152,289.7293,0,U,43926,999,38847,.13949E-3,.447E-5,0
IRIDIUM 172,2019-002F,2026-06-05T00:58:30.970272,14.34217661,.000228,86.3973,358.6507,89.5609,270.5848,0,U,43927,999,38722,.69772E-5,.39E-6,0
IRIDIUM 175,2019-002G,2026-06-03T08:14:39.785856,14.43604578,.00009891,86.4502,296.3094,262.2416,97.8672,0,U,43928,999,39698,.10234176E-3,.367E-5,0
IRIDIUM 171,2019-002H,2026-06-05T00:31:06.930336,14.34217530,.0002019,86.3982,358.9633,86.3667,273.7760,0,U,43929,999,38721,-.33007E-5,.11E-6,0
IRIDIUM 170,2019-002J,2026-06-04T02:46:08.019840,14.72248600,.00023666,86.6099,359.0117,87.6012,272.5476,0,U,43930,999,39733,.35948254E-4,.251E-5,0
IRIDIUM 167,2019-002K,2026-06-05T00:21:58.883040,14.34217637,.0001889,86.3975,358.6835,84.0735,276.0676,0,U,43931,999,38721,.24384E-7,.2E-6,0
IRIDIUM 181,2023-068S,2026-06-04T16:42:57.245760,14.43307636,.0002262,86.4503,62.0112,88.7980,271.3480,0,U,56726,999,16063,.1066E-3,.379E-5,0
IRIDIUM 177,2023-068T,2026-06-05T00:27:25.053408,14.80230899,.0002435,86.1958,334.5722,86.4963,273.6537,0,U,56727,999,16456,.60813E-4,.489E-5,0
IRIDIUM 174,2023-068U,2026-06-04T02:28:20.007840,14.72251410,.00024854,86.6101,359.1625,89.3509,270.7993,0,U,56728,999,16409,-.621144E-5,-.14E-6,0
IRIDIUM 178,2023-068V,2026-06-04T16:05:01.873248,14.80245286,.00024994,86.6547,30.5913,88.8287,271.3221,0,U,56729,999,16451,.15725439E-3,.1221E-4,0
IRIDIUM 179,2023-068W,2026-06-04T15:57:19.342944,14.80241824,.00023364,86.6785,39.5356,85.6761,274.4728,0,U,56730,999,16451,.15277467E-3,.1187E-4,0
