IRIDIUM 156             
1 43576U 18061H   26155.69864080  .00000075  00000+0  19572-4 0  9990
2 43576  86.3964  61.9511 0002175  78.8278 281.3162 14.34217252411584
IRIDIUM 164             
1 43577U 18061J   26155.74937830  .00000233  00000+0  76150-4 0  9992
2 43577  86.3967  61.9699 0002081  89.7067 270.4367 14.34216843411635
IRIDIUM 159             
1 43578U 18061K   26155.71766794  .00000006  00000+0 -48428-5 0  9996
2 43578  86.3963  61.9200 0002190  85.6924 274.4522 14.34217350411594
IRIDIUM 180             
1 43922U 19002A   26156.06600662  .00000022  00000+0  91688-6 0  9999
2 43922  86.3973 358.6658 0002238  89.2219 270.9233 14.34217680387252
IRIDIUM 176             
1 43923U 19002B   26155.10918546  .00000926  00000+0  14304-3 0  9997
2 43923  86.6094 359.0116 0002067  84.8735 275.2718 14.72250537397323
IRIDIUM 168             
1 43924U 19002C   26155.98989550 -.00000013  00000+0 -11821-4 0  9998
2 43924  86.3973 358.7747 0002059  89.5375 270.6056 14.34217277387220
IRIDIUM 173             
1 43925U 19002D   26155.97720740  .00000214  00000+0  69444-4 0  9997
2 43925  86.3973 358.6694 0002248  87.3899 272.7554 14.34219377387205
IRIDIUM 169             
1 43926U 19002E   26156.01042682  .00000447  00000+0  13949-3 0  9992
2 43926  86.4235  30.2843 0002286  70.4152 289.7293 14.38609227388473
IRIDIUM 172             
1 43927U 19002F   26156.04063623  .00000039  00000+0  69772-5 0  9998
2 43927  86.3973 358.6507 0002280  89.5609 270.5848 14.34217661387227
IRIDIUM 175             
1 43928U 19002G   26154.34351604  .00000367  00000+0  10234-3 0  9990
2 43928  86.4502 296.3094 0000989 262.2416  97.8672 14.43604578396981
IRIDIUM 171             
1 43929U 19002H   26156.02160799  .00000011  00000+0 -33007-5 0  9993
2 43929  86.3982 358.9633 0002019  86.3667 273.7760 14.34217530387213
IRIDIUM 170             
1 43930U 19002J   26155.11537060  .00000251  00000+0  35948-4 0  9993
2 43930  86.6099 359.0117 0002366  87.6012 272.5476 14.72248600397338
IRIDIUM 167             
1 43931U 19002K   26156.01526485  .00000020  00000+0  24384-7 0  9992
2 43931  86.3975 358.6835 0001889  84.0735 276.0676 14.34217637387214
IRIDIUM 181             
1 56726U 23068S   26155.69649590  .00000379  00000+0  10660-3 0  9996
2 56726  86.4503  62.0112 0002262  88.7980 271.3480 14.43307636160636
IRIDIUM 177             
1 56727U 23068T   26156.01903997  .00000489  00000+0  60813-4 0  9996
2 56727  86.1958 334.5722 0002435  86.4963 273.6537 14.80230899164561
IRIDIUM 174             
1 56728U 23068U   26155.10300935 -.00000014  00000+0 -62114-5 0  9992
2 56728  86.6101 359.1625 0002485  89.3509 270.7993 14.72251410164090
IRIDIUM 178             
1 56729U 23068V   26155.67016057  .00001221  00000+0  15725-3 0  9997
2 56729  86.6547  30.5913 0002499  88.8287 271.3221 14.80245286164518
IRIDIUM 179             
1 56730U 23068W   26155.66480721  .00001187  00000+0  15277-3 0  9994
2 56730  86.6785  39.5356 0002336  85.6761 274.4728 14.80241824164516
